start=new Date('2022-10-29T00:00:00.000Z').valueOf();
sats=[{"COUNTRY_CODE":"US","SITE":"AFETR","TIME_SYSTEM":"UTC","LAUNCH_DATE":"2022-08-28","TLE_LINE1":"1 53604U 22104S   22301.91668981  .00017712  00000-0  11287-2 0  9992","FILE":"3637111","MEAN_MOTION_DOT":"0.00017712","RA_OF_ASC_NODE":"350.7529","APOAPSIS":"540.886","CENTER_NAME":"EARTH","OBJECT_NAME":"STARLINK-4690","MEAN_ELEMENT_THEORY":"SGP4","SEMIMAJOR_AXIS":"6917.934","MEAN_MOTION_DDOT":"0.0000000000000","TLE_LINE2":"2 53604  53.2191 350.7529 0001571  50.3868 316.6789 15.08822312  1302","ECCENTRICITY":"0.00015710","OBJECT_ID":"2022-104S","REF_FRAME":"TEME","RCS_SIZE":"LARGE","ELEMENT_SET_NO":"999","PERIAPSIS":"538.713","INCLINATION":"53.2191","BSTAR":"0.00112870000000","DECAY_DATE":null,"GP_ID":"216411606","OBJECT_TYPE":"PAYLOAD","CLASSIFICATION_TYPE":"U","MEAN_MOTION":"15.08822312","PERIOD":"95.439","EPHEMERIS_TYPE":"0","REV_AT_EPOCH":"130","EPOCH":"2022-10-28T22:00:01.999584","MEAN_ANOMALY":"316.6789","ARG_OF_PERICENTER":"50.3868","NORAD_CAT_ID":"53604"},{"REV_AT_EPOCH":"130","EPHEMERIS_TYPE":"0","NORAD_CAT_ID":"53605","EPOCH":"2022-10-28T22:00:01.999584","ARG_OF_PERICENTER":"50.8608","MEAN_ANOMALY":"34.0240","OBJECT_TYPE":"PAYLOAD","CLASSIFICATION_TYPE":"U","MEAN_MOTION":"15.08846211","PERIOD":"95.437","INCLINATION":"53.2194","BSTAR":"-0.00169390000000","PERIAPSIS":"538.608","ELEMENT_SET_NO":"999","GP_ID":"216410796","DECAY_DATE":null,"TLE_LINE2":"2 53605  53.2194 355.5804 0001616  50.8608  34.0240 15.08846211  1309","MEAN_MOTION_DDOT":"0.0000000000000","ECCENTRICITY":"0.00016160","REF_FRAME":"TEME","OBJECT_ID":"2022-104T","RCS_SIZE":"LARGE","CENTER_NAME":"EARTH","SEMIMAJOR_AXIS":"6917.861","MEAN_ELEMENT_THEORY":"SGP4","OBJECT_NAME":"STARLINK-4693","LAUNCH_DATE":"2022-08-28","FILE":"3637111","TLE_LINE1":"1 53605U 22104T   22301.91668981 -.00027150  00000-0 -16939-2 0  9991","RA_OF_ASC_NODE":"355.5804","MEAN_MOTION_DOT":"-0.00027150","APOAPSIS":"540.844","TIME_SYSTEM":"UTC","SITE":"AFETR","COUNTRY_CODE":"US"},{"RCS_SIZE":"LARGE","REF_FRAME":"TEME","OBJECT_ID":"2022-104U","ECCENTRICITY":"0.00017010","TLE_LINE2":"2 53606  53.2175 346.2302 0001701  41.8319  73.7445 15.23239205  1306","MEAN_MOTION_DDOT":"0.0000000000000","GP_ID":"216411432","DECAY_DATE":null,"INCLINATION":"53.2175","BSTAR":"-0.04834400000000","PERIAPSIS":"494.911","ELEMENT_SET_NO":"999","PERIOD":"94.535","MEAN_MOTION":"15.23239205","CLASSIFICATION_TYPE":"U","OBJECT_TYPE":"PAYLOAD","MEAN_ANOMALY":"73.7445","EPOCH":"2022-10-28T22:00:01.999584","NORAD_CAT_ID":"53606","ARG_OF_PERICENTER":"41.8319","EPHEMERIS_TYPE":"0","REV_AT_EPOCH":"130","COUNTRY_CODE":"US","TIME_SYSTEM":"UTC","SITE":"AFETR","APOAPSIS":"497.249","RA_OF_ASC_NODE":"346.2302","MEAN_MOTION_DOT":"-0.01062280","FILE":"3637111","TLE_LINE1":"1 53606U 22104U   22301.91668981 -.01062280  00000-0 -48344-1 0  9990","LAUNCH_DATE":"2022-08-28","SEMIMAJOR_AXIS":"6874.215","MEAN_ELEMENT_THEORY":"SGP4","OBJECT_NAME":"STARLINK-4590","CENTER_NAME":"EARTH"},{"CLASSIFICATION_TYPE":"U","MEAN_MOTION":"15.08857340","OBJECT_TYPE":"PAYLOAD","PERIOD":"95.436","REV_AT_EPOCH":"130","EPHEMERIS_TYPE":"0","ARG_OF_PERICENTER":"45.5287","EPOCH":"2022-10-28T22:00:01.999584","NORAD_CAT_ID":"53607","MEAN_ANOMALY":"261.4090","ECCENTRICITY":"0.00017090","TLE_LINE2":"2 53607  53.2176 350.8674 0001709  45.5287 261.4090 15.08857340  1305","MEAN_MOTION_DDOT":"0.0000000000000","RCS_SIZE":"LARGE","OBJECT_ID":"2022-104V","REF_FRAME":"TEME","PERIAPSIS":"538.510","ELEMENT_SET_NO":"999","BSTAR":"-0.00159570000000","INCLINATION":"53.2176","DECAY_DATE":null,"GP_ID":"216410554","TLE_LINE1":"1 53607U 22104V   22301.91668981 -.00025606  00000-0 -15957-2 0  9996","FILE":"3637111","LAUNCH_DATE":"2022-08-28","APOAPSIS":"540.875","MEAN_MOTION_DOT":"-0.00025606","RA_OF_ASC_NODE":"350.8674","CENTER_NAME":"EARTH","MEAN_ELEMENT_THEORY":"SGP4","OBJECT_NAME":"STARLINK-4591","SEMIMAJOR_AXIS":"6917.827","COUNTRY_CODE":"US","SITE":"AFETR","TIME_SYSTEM":"UTC"},{"COUNTRY_CODE":"US","SITE":"AFETR","TIME_SYSTEM":"UTC","TLE_LINE1":"1 53608U 22104W   22301.91668981 -.01070065  00000-0 -49539-1 0  9999","FILE":"3637111","LAUNCH_DATE":"2022-08-28","APOAPSIS":"498.978","MEAN_MOTION_DOT":"-0.01070065","RA_OF_ASC_NODE":"346.2851","CENTER_NAME":"EARTH","MEAN_ELEMENT_THEORY":"SGP4","OBJECT_NAME":"STARLINK-4647","SEMIMAJOR_AXIS":"6875.878","ECCENTRICITY":"0.00017970","TLE_LINE2":"2 53608  53.2171 346.2851 0001797  34.3165  53.6635 15.22686714  1302","MEAN_MOTION_DDOT":"0.0000000000000","RCS_SIZE":"LARGE","OBJECT_ID":"2022-104W","REF_FRAME":"TEME","ELEMENT_SET_NO":"999","PERIAPSIS":"496.507","INCLINATION":"53.2171","BSTAR":"-0.04953900000000","DECAY_DATE":null,"GP_ID":"216411323","CLASSIFICATION_TYPE":"U","MEAN_MOTION":"15.22686714","OBJECT_TYPE":"PAYLOAD","PERIOD":"94.570","REV_AT_EPOCH":"130","EPHEMERIS_TYPE":"0","MEAN_ANOMALY":"53.6635","EPOCH":"2022-10-28T22:00:01.999584","NORAD_CAT_ID":"53608","ARG_OF_PERICENTER":"34.3165"},{"PERIOD":"95.438","OBJECT_TYPE":"PAYLOAD","MEAN_MOTION":"15.08835613","CLASSIFICATION_TYPE":"U","MEAN_ANOMALY":"33.3872","ARG_OF_PERICENTER":"53.7655","NORAD_CAT_ID":"53609","EPOCH":"2022-10-28T22:00:01.999584","EPHEMERIS_TYPE":"0","REV_AT_EPOCH":"130","REF_FRAME":"TEME","OBJECT_ID":"2022-104X","RCS_SIZE":"LARGE","TLE_LINE2":"2 53609  53.2159 350.5878 0001617  53.7655  33.3872 15.08835613  1302","MEAN_MOTION_DDOT":"0.0000000000000","ECCENTRICITY":"0.00016170","DECAY_DATE":null,"GP_ID":"216410379","INCLINATION":"53.2159","BSTAR":"-0.00110820000000","PERIAPSIS":"538.640","ELEMENT_SET_NO":"999","RA_OF_ASC_NODE":"350.5878","MEAN_MOTION_DOT":"-0.00017880","APOAPSIS":"540.877","LAUNCH_DATE":"2022-08-28","FILE":"3637111","TLE_LINE1":"1 53609U 22104X   22301.91668981 -.00017880  00000-0 -11082-2 0  9998","SEMIMAJOR_AXIS":"6917.894","OBJECT_NAME":"STARLINK-4660","MEAN_ELEMENT_THEORY":"SGP4","CENTER_NAME":"EARTH","COUNTRY_CODE":"US","TIME_SYSTEM":"UTC","SITE":"AFETR"},{"REV_AT_EPOCH":"130","EPHEMERIS_TYPE":"0","EPOCH":"2022-10-28T22:00:01.999584","MEAN_ANOMALY":"66.9189","ARG_OF_PERICENTER":"44.8259","NORAD_CAT_ID":"53610","OBJECT_TYPE":"PAYLOAD","MEAN_MOTION":"15.23178689","CLASSIFICATION_TYPE":"U","PERIOD":"94.539","INCLINATION":"53.2175","BSTAR":"-0.04843300000000","PERIAPSIS":"495.146","ELEMENT_SET_NO":"999","GP_ID":"216411149","DECAY_DATE":null,"TLE_LINE2":"2 53610  53.2175 346.2381 0001624  44.8259  66.9189 15.23178689  1305","MEAN_MOTION_DDOT":"0.0000000000000","ECCENTRICITY":"0.00016240","REF_FRAME":"TEME","OBJECT_ID":"2022-104Y","RCS_SIZE":"LARGE","CENTER_NAME":"EARTH","SEMIMAJOR_AXIS":"6874.397","MEAN_ELEMENT_THEORY":"SGP4","OBJECT_NAME":"STARLINK-4610","LAUNCH_DATE":"2022-08-28","FILE":"3637111","TLE_LINE1":"1 53610U 22104Y   22301.91668981 -.01062296  00000-0 -48433-1 0  9991","RA_OF_ASC_NODE":"346.2381","MEAN_MOTION_DOT":"-0.01062296","APOAPSIS":"497.378","TIME_SYSTEM":"UTC","SITE":"AFETR","COUNTRY_CODE":"US"},{"COUNTRY_CODE":"US","TIME_SYSTEM":"UTC","SITE":"AFETR","APOAPSIS":"499.896","RA_OF_ASC_NODE":"346.3119","MEAN_MOTION_DOT":"-0.01062568","FILE":"3637111","TLE_LINE1":"1 53611U 22104Z   22301.91668981 -.01062568  00000-0 -49592-1 0  9991","LAUNCH_DATE":"2022-08-28","SEMIMAJOR_AXIS":"6876.762","MEAN_ELEMENT_THEORY":"SGP4","OBJECT_NAME":"STARLINK-4650","CENTER_NAME":"EARTH","RCS_SIZE":"LARGE","REF_FRAME":"TEME","OBJECT_ID":"2022-104Z","ECCENTRICITY":"0.00018450","MEAN_MOTION_DDOT":"0.0000000000000","TLE_LINE2":"2 53611  53.2175 346.3119 0001845  33.4832  40.7287 15.22392810  1304","DECAY_DATE":null,"GP_ID":"216410972","INCLINATION":"53.2175","BSTAR":"-0.04959200000000","PERIAPSIS":"497.359","ELEMENT_SET_NO":"999","PERIOD":"94.588","MEAN_MOTION":"15.22392810","CLASSIFICATION_TYPE":"U","OBJECT_TYPE":"PAYLOAD","NORAD_CAT_ID":"53611","ARG_OF_PERICENTER":"33.4832","MEAN_ANOMALY":"40.7287","EPOCH":"2022-10-28T22:00:01.999584","EPHEMERIS_TYPE":"0","REV_AT_EPOCH":"130"},{"TIME_SYSTEM":"UTC","SITE":"AFETR","COUNTRY_CODE":"US","SEMIMAJOR_AXIS":"6873.350","OBJECT_NAME":"STARLINK-4658","MEAN_ELEMENT_THEORY":"SGP4","CENTER_NAME":"EARTH","APOAPSIS":"496.387","RA_OF_ASC_NODE":"346.2042","MEAN_MOTION_DOT":"-0.01060877","FILE":"3637111","TLE_LINE1":"1 53612U 22104AA  22301.91668981 -.01060877  00000-0 -47861-1 0  9990","LAUNCH_DATE":"2022-08-28","GP_ID":"216411607","DECAY_DATE":null,"INCLINATION":"53.2173","BSTAR":"-0.04786100000000","PERIAPSIS":"494.043","ELEMENT_SET_NO":"999","RCS_SIZE":"LARGE","REF_FRAME":"TEME","OBJECT_ID":"2022-104AA","ECCENTRICITY":"0.00017050","MEAN_MOTION_DDOT":"0.0000000000000","TLE_LINE2":"2 53612  53.2173 346.2042 0001705  42.9600  86.0008 15.23526841  1308","EPOCH":"2022-10-28T22:00:01.999584","ARG_OF_PERICENTER":"42.9600","MEAN_ANOMALY":"86.0008","NORAD_CAT_ID":"53612","EPHEMERIS_TYPE":"0","REV_AT_EPOCH":"130","PERIOD":"94.518","CLASSIFICATION_TYPE":"U","MEAN_MOTION":"15.23526841","OBJECT_TYPE":"PAYLOAD"},{"MEAN_MOTION_DDOT":"0.0000000000000","TLE_LINE2":"2 53613  53.2175 346.2578 0001490  51.0352  50.5860 15.22970266  1306","ECCENTRICITY":"0.00014900","OBJECT_ID":"2022-104AB","REF_FRAME":"TEME","RCS_SIZE":"LARGE","PERIAPSIS":"495.865","ELEMENT_SET_NO":"999","BSTAR":"-0.04874400000000","INCLINATION":"53.2175","GP_ID":"216410797","DECAY_DATE":null,"OBJECT_TYPE":"PAYLOAD","MEAN_MOTION":"15.22970266","CLASSIFICATION_TYPE":"U","PERIOD":"94.552","EPHEMERIS_TYPE":"0","REV_AT_EPOCH":"130","EPOCH":"2022-10-28T22:00:01.999584","MEAN_ANOMALY":"50.5860","ARG_OF_PERICENTER":"51.0352","NORAD_CAT_ID":"53613","COUNTRY_CODE":"US","SITE":"AFETR","TIME_SYSTEM":"UTC","LAUNCH_DATE":"2022-08-28","TLE_LINE1":"1 53613U 22104AB  22301.91668981 -.01062446  00000-0 -48744-1 0  9996","FILE":"3637111","MEAN_MOTION_DOT":"-0.01062446","RA_OF_ASC_NODE":"346.2578","APOAPSIS":"497.913","CENTER_NAME":"EARTH","OBJECT_NAME":"STARLINK-4655","MEAN_ELEMENT_THEORY":"SGP4","SEMIMAJOR_AXIS":"6875.024"}];
